[{"OBJECT_NAME":"LUSAT (LO-19)","OBJECT_ID":"1990-005G","EPOCH":"2026-03-09T14:54:14.260896","MEAN_MOTION":14.34087969,"ECCENTRICITY":0.001234,"INCLINATION":98.8938,"RA_OF_ASC_NODE":87.6461,"ARG_OF_PERICENTER":134.6824,"MEAN_ANOMALY":225.5367,"EPHEMERIS_TYPE":0,"CLASSIFICATION_TYPE":"U","NORAD_CAT_ID":20442,"ELEMENT_SET_NO":999,"REV_AT_EPOCH":88812,"BSTAR":8.4338e-5,"MEAN_MOTION_DOT":1.89e-6,"MEAN_MOTION_DDOT":0},{"OBJECT_NAME":"CZ-6A DEB","OBJECT_ID":"2024-140BE","EPOCH":"2026-03-09T12:54:21.890304","MEAN_MOTION":14.34149629,"ECCENTRICITY":0.00275781,"INCLINATION":88.6447,"RA_OF_ASC_NODE":260.1151,"ARG_OF_PERICENTER":224.8566,"MEAN_ANOMALY":135.0404,"EPHEMERIS_TYPE":0,"CLASSIFICATION_TYPE":"U","NORAD_CAT_ID":60653,"ELEMENT_SET_NO":999,"REV_AT_EPOCH":8260,"BSTAR":0.0002578285,"MEAN_MOTION_DOT":7.4e-6,"MEAN_MOTION_DDOT":0}]
